$$SOE
2460147.500000000, A.D. 2023-Jul-22 00:00:00.0000, -1.516086708397588E+08, -5.227377616220088E+08, 2.672993160106146E+07,
2460154.500000000, A.D. 2023-Jul-29 00:00:00.0000, -1.429826138320263E+08, -5.249007778923714E+08, 2.497581451405078E+07,
2460161.500000000, A.D. 2023-Aug-05 00:00:00.0000, -1.343136423190678E+08, -5.269060431417518E+08, 2.321419231538263E+07,
2460168.500000000, A.D. 2023-Aug-12 00:00:00.0000, -1.256042865861418E+08, -5.287526518909843E+08, 2.144558123381388E+07,
2460175.500000000, A.D. 2023-Aug-19 00:00:00.0000, -1.168570959593709E+08, -5.304397326351282E+08, 1.967050112335283E+07,
2460182.500000000, A.D. 2023-Aug-26 00:00:00.0000, -1.080746386971395E+08, -5.319664481559343E+08, 1.788947544500086E+07,
2460189.500000000, A.D. 2023-Sep-02 00:00:00.0000, -9.925950189927870E+07, -5.333319959195411E+08, 1.610303124265811E+07,
2460196.500000000, A.D. 2023-Sep-09 00:00:00.0000, -9.041429139675537E+07, -5.345356086006524E+08, 1.431169910635719E+07,
2460203.500000000, A.D. 2023-Sep-16 00:00:00.0000, -8.154163145284522E+07, -5.355765547913448E+08, 1.251601310257629E+07,
2460210.500000000, A.D. 2023-Sep-23 00:00:00.0000, -7.264416385887076E+07, -5.364541396078545E+08, 1.071651065683556E+07,
2460217.500000000, A.D. 2023-Sep-30 00:00:00.0000, -6.372454676363193E+07, -5.371677040045726E+08, 8.913732517011046E+06,
2460224.500000000, A.D. 2023-Oct-07 00:00:00.0000, -5.478545558967982E+07, -5.377166233375171E+08, 7.108222968863368E+06,
2460231.500000000, A.D. 2023-Oct-14 00:00:00.0000, -4.582958499547738E+07, -5.381003084898590E+08, 5.300529937596798E+06,
2460238.500000000, A.D. 2023-Oct-21 00:00:00.0000, -3.685964865374283E+07, -5.383182079571046E+08, 3.491204810328931E+06,
2460245.500000000, A.D. 2023-Oct-28 00:00:00.0000, -2.787837826972145E+07, -5.383698086324079E+08, 1.680802294964641E+06,
2460252.500000000, A.D. 2023-Nov-04 00:00:00.0000, -1.888852308895051E+07, -5.382546360625045E+08, -1.301196326763332E+05,
2460259.500000000, A.D. 2023-Nov-11 00:00:00.0000, -9.892849716398999E+06, -5.379722547739469E+08, -1.940999758661687E+06,
2460266.500000000, A.D. 2023-Nov-18 00:00:00.0000, -8.941420268333353E+05, -5.375222687336373E+08, -3.751273662965417E+06,
2460273.500000000, A.D. 2023-Nov-25 00:00:00.0000, 8.104798907215733E+06, -5.369043219207277E+08, -5.560373758480847E+06,
2460280.500000000, A.D. 2023-Dec-02 00:00:00.0000, 1.710115489903503E+07, -5.361180990208451E+08, -7.367729340521753E+06,
2460287.500000000, A.D. 2023-Dec-09 00:00:00.0000, 2.609209082168619E+07, -5.351633263015822E+08, -9.172766658803672E+06,
2460294.500000000, A.D. 2023-Dec-16 00:00:00.0000, 3.507475516075120E+07, -5.340397726569299E+08, -1.097490903735402E+07,
2460301.500000000, A.D. 2023-Dec-23 00:00:00.0000, 4.404628129498649E+07, -5.327472501334611E+08, -1.277357701830441E+07,
2460308.500000000, A.D. 2023-Dec-30 00:00:00.0000, 5.300378816514712E+07, -5.312856128889097E+08, -1.456818832114130E+07,
2460315.500000000, A.D. 2024-Jan-06 00:00:00.0000, 6.194437855917263E+07, -5.296547569430206E+08, -1.635815764811298E+07,
2460322.500000000, A.D. 2024-Jan-13 00:00:00.0000, 7.086513818772975E+07, -5.278546225268258E+08, -1.814289677490252E+07,
2460329.500000000, A.D. 2024-Jan-20 00:00:00.0000, 7.976313677499706E+07, -5.258851959460001E+08, -1.992181478716552E+07,
2460336.500000000, A.D. 2024-Jan-27 00:00:00.0000, 8.863542913687219E+07, -5.237465103064857E+08, -2.169431822397208E+07,
2460343.500000000, A.D. 2024-Feb-03 00:00:00.0000, 9.747905581897698E+07, -5.214386460510210E+08, -2.345981116680318E+07,
2460350.500000000, A.D. 2024-Feb-10 00:00:00.0000, 1.062910435725046E+08, -5.189617315975194E+08, -2.521769532374379E+07,
2460357.500000000, A.D. 2024-Feb-17 00:00:00.0000, 1.150684058071389E+08, -5.163159440709886E+08, -2.696737012131324E+07,
2460364.500000000, A.D. 2024-Feb-24 00:00:00.0000, 1.238081430574106E+08, -5.135015101134251E+08, -2.870823280634445E+07,
2460371.500000000, A.D. 2024-Mar-02 00:00:00.0000, 1.325072434923807E+08, -5.105187068030153E+08, -3.043967856351224E+07,
2460378.500000000, A.D. 2024-Mar-09 00:00:00.0000, 1.411626836083248E+08, -5.073678627441326E+08, -3.216110066658148E+07,
2460385.500000000, A.D. 2024-Mar-16 00:00:00.0000, 1.497714295009685E+08, -5.040493591297157E+08, -3.387189068367383E+07,
2460392.500000000, A.D. 2024-Mar-23 00:00:00.0000, 1.583304386151551E+08, -5.005636296662755E+08, -3.557143863660291E+07,
2460399.500000000, A.D. 2024-Mar-30 00:00:00.0000, 1.668366597321267E+08, -4.969111593877980E+08, -3.725913291110930E+07,
2460406.500000000, A.D. 2024-Apr-06 00:00:00.0000, 1.752870314517283E+08, -4.930924857253094E+08, -3.893436021692756E+07,
2460413.500000000, A.D. 2024-Apr-13 00:00:00.0000, 1.836784827222147E+08, -4.891082009952999E+08, -4.059650585533243E+07,
2460420.500000000, A.D. 2024-Apr-20 00:00:00.0000, 1.920079344667464E+08, -4.849589536306684E+08, -4.224495398836327E+07,
2460427.500000000, A.D. 2024-Apr-27 00:00:00.0000, 2.002723007902326E+08, -4.806454487154719E+08, -4.387908781665432E+07,
2460434.500000000, A.D. 2024-May-04 00:00:00.0000, 2.084684898549931E+08, -4.761684485260009E+08, -4.549828973154199E+07,
2460441.500000000, A.D. 2024-May-11 00:00:00.0000, 2.165934046642271E+08, -4.715287731786669E+08, -4.710194147170317E+07,
2460448.500000000, A.D. 2024-May-18 00:00:00.0000, 2.246439438359654E+08, -4.667273013614816E+08, -4.868942429009980E+07,
2460455.500000000, A.D. 2024-May-25 00:00:00.0000, 2.326170023929720E+08, -4.617649711543746E+08, -5.026011913405204E+07,
2460462.500000000, A.D. 2024-Jun-01 00:00:00.0000, 2.405094726294084E+08, -4.566427809937423E+08, -5.181340684856424E+07,
2460469.500000000, A.D. 2024-Jun-08 00:00:00.0000, 2.483182453019213E+08, -4.513617908023775E+08, -5.334866842732149E+07,
2460476.500000000, A.D. 2024-Jun-15 00:00:00.0000, 2.560402115460887E+08, -4.459231227384811E+08, -5.486528530343810E+07,
2460483.500000000, A.D. 2024-Jun-22 00:00:00.0000, 2.636722645139820E+08, -4.403279603878222E+08, -5.636263949170274E+07,
2460490.500000000, A.D. 2024-Jun-29 00:00:00.0000, 2.712112986114306E+08, -4.345775482183892E+08, -5.784011353642669E+07,
2460497.500000000, A.D. 2024-Jul-06 00:00:00.0000, 2.786542089801916E+08, -4.286731937661027E+08, -5.929709070929295E+07,
2460504.500000000, A.D. 2024-Jul-13 00:00:00.0000, 2.859978931752352E+08, -4.226162697253105E+08, -6.073295540517318E+07,
2460511.500000000, A.D. 2024-Jul-20 00:00:00.0000, 2.932392530524403E+08, -4.164082147939107E+08, -6.214709345996729E+07,
2460518.500000000, A.D. 2024-Jul-27 00:00:00.0000, 3.003751962112530E+08, -4.100505342308869E+08, -6.353889240877634E+07,
2460525.500000000, A.D. 2024-Aug-03 00:00:00.0000, 3.074026372656898E+08, -4.035448004990919E+08, -6.490774174016735E+07,
2460532.500000000, A.D. 2024-Aug-10 00:00:00.0000, 3.143184991099685E+08, -3.968926539953582E+08, -6.625303316223946E+07,
2460539.500000000, A.D. 2024-Aug-17 00:00:00.0000, 3.211197142266315E+08, -3.900958038436586E+08, -6.757416088325241E+07,
2460546.500000000, A.D. 2024-Aug-24 00:00:00.0000, 3.278032260654926E+08, -3.831560287708206E+08, -6.887052191144051E+07,
2460553.500000000, A.D. 2024-Aug-31 00:00:00.0000, 3.343659906096337E+08, -3.760751781233158E+08, -7.014151638993467E+07,
2460560.500000000, A.D. 2024-Sep-07 00:00:00.0000, 3.408049784949793E+08, -3.688551728959394E+08, -7.138654799038100E+07,
2460567.500000000, A.D. 2024-Sep-14 00:00:00.0000, 3.471171777700502E+08, -3.614980057745101E+08, -7.260502429221112E+07,
2460574.500000000, A.D. 2024-Sep-21 00:00:00.0000, 3.532995952678446E+08, -3.540057397787423E+08, -7.379635692828713E+07,
2460581.500000000, A.D. 2024-Sep-28 00:00:00.0000, 3.593492561018512E+08, -3.463805087308486E+08, -7.495996171623692E+07,
2460588.500000000, A.D. 2024-Oct-05 00:00:00.0000, 3.652632049553764E+08, -3.386245195449142E+08, -7.609525911199665E+07,
2460595.500000000, A.D. 2024-Oct-12 00:00:00.0000, 3.710385088039240E+08, -3.307400533541299E+08, -7.720167470909753E+07,
2460602.500000000, A.D. 2024-Oct-19 00:00:00.0000, 3.766722593199326E+08, -3.227294657445306E+08, -7.827863964538601E+07,
2460609.500000000, A.D. 2024-Oct-26 00:00:00.0000, 3.821615749270788E+08, -3.145951868943103E+08, -7.932559097970694E+07,
2460616.500000000, A.D. 2024-Nov-02 00:00:00.0000, 3.875036027605475E+08, -3.063397217643624E+08, -8.034197207409361E+07,
2460623.500000000, A.D. 2024-Nov-09 00:00:00.0000, 3.926955206285174E+08, -2.979656503160977E+08, -8.132723298824252E+07,
2460630.500000000, A.D. 2024-Nov-16 00:00:00.0000, 3.977345389992397E+08, -2.894756277524513E+08, -8.228083088807529E+07,
2460637.500000000, A.D. 2024-Nov-23 00:00:00.0000, 4.026179030592618E+08, -2.808723848276513E+08, -8.320223047616495E+07,
2460644.500000000, A.D. 2024-Nov-30 00:00:00.0000, 4.073428950502499E+08, -2.721587282638279E+08, -8.409090446610352E+07,
2460651.500000000, A.D. 2024-Dec-07 00:00:00.0000, 4.119068373040196E+08, -2.633375408496709E+08, -8.494633410466254E+07,
2460658.500000000, A.D. 2024-Dec-14 00:00:00.0000, 4.163070952881508E+08, -2.544117799945364E+08, -8.576800957867563E+07,
2460665.500000000, A.D. 2024-Dec-21 00:00:00.0000, 4.205410783435994E+08, -2.453844759775890E+08, -8.655543019549568E+07,
2460672.500000000, A.D. 2024-Dec-28 00:00:00.0000, 4.246062400843663E+08, -2.362587328572437E+08, -8.730810475997877E+07,
2460679.500000000, A.D. 2025-Jan-04 00:00:00.0000, 4.285000810537034E+08, -2.270377296611622E+08, -8.802555219121197E+07,
2460686.500000000, A.D. 2025-Jan-11 00:00:00.0000, 4.322201518137264E+08, -2.177247201936012E+08, -8.870730207558295E+07,
2460693.500000000, A.D. 2025-Jan-18 00:00:00.0000, 4.357640555496046E+08, -2.083230323759284E+08, -8.935289514646795E+07,
2460700.500000000, A.D. 2025-Jan-25 00:00:00.0000, 4.391294504295540E+08, -1.988360675918134E+08, -8.996188375086656E+07,
2460707.500000000, A.D. 2025-Feb-01 00:00:00.0000, 4.423140519077017E+08, -1.892673000641402E+08, -9.053383232199949E+07,
$$EOE